/* Generated by tests/gen_prop_fixture_header.py from committed
 * Python/Core propagation fixtures. Numeric references are copied as
 * exact IEEE-754 float64 bit patterns where available. Do not edit by
 * hand; rerun the generator. */
#ifndef SIDEREON_PROP_FIXTURE_H
#define SIDEREON_PROP_FIXTURE_H

#include <stdint.h>

#define PROP_TLE_LINE1 "1 25544U 98067A   18184.80969102  .00001614  00000-0  31745-4 0  9993"
#define PROP_TLE_LINE2 "2 25544  51.6414 295.8524 0003435 262.6267 204.2868 15.54005638121106"
#define PROP_TLE_ENCODED_LINE1 "1 25544U 98067A   18184.80969102  .00001614  00000-0  31745-4 0  9993"
#define PROP_TLE_ENCODED_LINE2 "2 25544  51.6414 295.8524 0003435 262.6267 204.2868 15.54005638121106"
#define PROP_TLE_BAD_CHECKSUM_LINE1 "1 25544U 98067A   18184.80969102  .00001614  00000-0  31745-4 0  9990"
#define PROP_TLE_BAD_CHECKSUM_LINE2 "2 25544  51.6414 295.8524 0003435 262.6267 204.2868 15.54005638121106"
#define PROP_TLE_OPSMODE 0
#define PROP_TLE_CATALOG_NUMBER "25544"
#define PROP_TLE_CLASSIFICATION "U"
#define PROP_TLE_INTERNATIONAL_DESIGNATOR "98067A"
#define PROP_TLE_EPOCH_YEAR 2018
#define PROP_TLE_EPOCH_DAY_OF_YEAR 184.80969102
#define PROP_TLE_INCLINATION_DEG 51.641399999999997
#define PROP_TLE_RAAN_DEG 295.85239999999999
#define PROP_TLE_ECCENTRICITY 0.0003435
#define PROP_TLE_ARG_PERIGEE_DEG 262.62670000000003
#define PROP_TLE_MEAN_ANOMALY_DEG 204.2868
#define PROP_TLE_MEAN_MOTION_REV_PER_DAY 15.540056379999999
#define PROP_TLE_MEAN_MOTION_DOT 1.6140000000000001e-05
#define PROP_TLE_MEAN_MOTION_DOUBLE_DOT 0
#define PROP_TLE_BSTAR 3.1745000000000002e-05
#define PROP_TLE_EPHEMERIS_TYPE 0
#define PROP_TLE_ELSET_NUMBER 999
#define PROP_TLE_REV_NUMBER 12110
#define PROP_TLE_CHECKSUM_WARNING_COUNT 1
#define PROP_TLE_CHECKSUM_WARNING_LINE_NUMBER 1
#define PROP_TLE_CHECKSUM_WARNING_EXPECTED 0
#define PROP_TLE_CHECKSUM_WARNING_COMPUTED 3

#define PROP_EPOCH_COUNT 10
#define PROP_STATION_LATITUDE_DEG 51.507399999999997
#define PROP_STATION_LONGITUDE_DEG -0.1278
#define PROP_STATION_ALTITUDE_M 80
static const int64_t PROP_EPOCHS_UNIX_US[PROP_EPOCH_COUNT] = {
    INT64_C(1530646200000000),
    INT64_C(1530646260000000),
    INT64_C(1530646320000000),
    INT64_C(1530646380000000),
    INT64_C(1530646440000000),
    INT64_C(1530646500000000),
    INT64_C(1530646560000000),
    INT64_C(1530646620000000),
    INT64_C(1530646680000000),
    INT64_C(1530646740000000),
};
static const uint64_t PROP_TEME_POSITION_BITS[10][3] = {
    { UINT64_C(0x4098ea1be4cb4974), UINT64_C(0x40b2e5565b1d73e0), UINT64_C(0x40b17a14ef3fa337) },
    { UINT64_C(0x40940ebbe72c677d), UINT64_C(0x40b3f3adc9864714), UINT64_C(0x40b0ad4b7f1e8df8) },
    { UINT64_C(0x408e378339617bd0), UINT64_C(0x40b4ea8abc71f759), UINT64_C(0x40af99a76ba56b5d) },
    { UINT64_C(0x40842dfe4fb1e7da), UINT64_C(0x40b5c8c99b99eb90), UINT64_C(0x40adb36b4d0ab2d4) },
    { UINT64_C(0x407419707ce9878b), UINT64_C(0x40b68d63b0ca34fb), UINT64_C(0x40abaa1f02609a03) },
    { UINT64_C(0xc0103162da03add5), UINT64_C(0x40b73770685c2412), UINT64_C(0x40a980288f93e298) },
    { UINT64_C(0xc0749aaf25cfb109), UINT64_C(0x40b7c6266f2fe8f5), UINT64_C(0x40a73814d2677708) },
    { UINT64_C(0xc0846e2a3d10746c), UINT64_C(0x40b838dcac4e9a01), UINT64_C(0x40a4d494869a2e7a) },
    { UINT64_C(0xc08e76ec58309cb2), UINT64_C(0x40b88f0b14819cd7), UINT64_C(0x40a258791b7dd136) },
    { UINT64_C(0xc0942de59bd9f8d6), UINT64_C(0x40b8c84b5658198d), UINT64_C(0x409f8d62bd1ad58f) },
};
static const uint64_t PROP_TEME_VELOCITY_BITS[10][3] = {
    { UINT64_C(0xc0147e8d3aa3fa34), UINT64_C(0x4012c73c3e761c93), UINT64_C(0xc009f3378fdc48e0) },
    { UINT64_C(0xc014ef86bc8f17e6), UINT64_C(0x401140dfe3c5f16d), UINT64_C(0xc00ca39442cb6361) },
    { UINT64_C(0xc01547e1d676a46c), UINT64_C(0x400f4c487027de78), UINT64_C(0xc00f324253b8e850) },
    { UINT64_C(0xc01587345f7d93c9), UINT64_C(0x400bf1d583d7fc40), UINT64_C(0xc010ce1d13ef4856) },
    { UINT64_C(0xc015ad318974f8cd), UINT64_C(0x40087656fff8e55f), UINT64_C(0xc011ef4f3979a7c8) },
    { UINT64_C(0xc015b9aa5b9fe0f0), UINT64_C(0x4004dde559320e71), UINT64_C(0xc012fb5fe5dfcb8b) },
    { UINT64_C(0xc015ac8e0ac9d31b), UINT64_C(0x40012cbcc1d69af9), UINT64_C(0xc013f1100a72b073) },
    { UINT64_C(0xc01585ea2cd102c7), UINT64_C(0x3fface7067a74dd7), UINT64_C(0xc014cf3ad99e5ca3) },
    { UINT64_C(0xc01545eac5f7e935), UINT64_C(0x3ff3239886dac14a), UINT64_C(0xc01594d7458269ff) },
    { UINT64_C(0xc014ecda2e965052), UINT64_C(0x3fe6c4070472df03), UINT64_C(0xc01640f95e9865ab) },
};
static const uint64_t PROP_LOOK_AZIMUTH_BITS[PROP_EPOCH_COUNT] = {
    UINT64_C(0x4074c785bb25724c),
    UINT64_C(0x40748d1274f86a64),
    UINT64_C(0x407452f0aaa57430),
    UINT64_C(0x4074191adb6da0bf),
    UINT64_C(0x4073df89d623b572),
    UINT64_C(0x4073a634e24e51ca),
    UINT64_C(0x40736d11ee43f2a3),
    UINT64_C(0x40733415c1288b9e),
    UINT64_C(0x4072fb342ff54751),
    UINT64_C(0x4072c26054f2ec10),
};
static const uint64_t PROP_LOOK_ELEVATION_BITS[PROP_EPOCH_COUNT] = {
    UINT64_C(0xc04350db4e2390c1),
    UINT64_C(0xc0438e16b4d62f3f),
    UINT64_C(0xc043cec42420bfc7),
    UINT64_C(0xc0441287302e336a),
    UINT64_C(0xc04459009b89e67e),
    UINT64_C(0xc044a1ced8b8c65e),
    UINT64_C(0xc044ec8e77d25669),
    UINT64_C(0xc04538da81585c27),
    UINT64_C(0xc045864cc05d62ed),
    UINT64_C(0xc045d47dfeb0bf17),
};
static const uint64_t PROP_LOOK_RANGE_BITS[PROP_EPOCH_COUNT] = {
    UINT64_C(0x40c0d07927e68988),
    UINT64_C(0x40c0f6a8aead6313),
    UINT64_C(0x40c11ebdff0df202),
    UINT64_C(0x40c14874eea09891),
    UINT64_C(0x40c1738839c28899),
    UINT64_C(0x40c19fb218b821ea),
    UINT64_C(0x40c1ccacc6e43128),
    UINT64_C(0x40c1fa32fbae01a8),
    UINT64_C(0x40c22800553224c7),
    UINT64_C(0x40c255d1b53edc05),
};

#define PROP_PASS_START_UNIX_US INT64_C(1530619200000000)
#define PROP_PASS_END_UNIX_US INT64_C(1530705600000000)
#define PROP_PASS_ELEVATION_MASK_DEG 0
#define PROP_PASS_STEP_SECONDS 10
#define PROP_PASS_TIME_TOLERANCE_S 0.001
#define PROP_PASS_COUNT 6
static const int64_t PROP_PASS_AOS_UNIX_US[PROP_PASS_COUNT] = {
    INT64_C(1530672731076964),
    INT64_C(1530678405624694),
    INT64_C(1530684175282896),
    INT64_C(1530689966059874),
    INT64_C(1530695755659484),
    INT64_C(1530701594809874),
};
static const int64_t PROP_PASS_LOS_UNIX_US[PROP_PASS_COUNT] = {
    INT64_C(1530673217359923),
    INT64_C(1530679033205260),
    INT64_C(1530684821877746),
    INT64_C(1530690611783751),
    INT64_C(1530696368109435),
    INT64_C(1530702000124204),
};
static const int64_t PROP_PASS_CULMINATION_UNIX_US[PROP_PASS_COUNT] = {
    INT64_C(1530672973724542),
    INT64_C(1530678718589335),
    INT64_C(1530684498320405),
    INT64_C(1530690289415382),
    INT64_C(1530696062786566),
    INT64_C(1530701797783611),
};
static const uint64_t PROP_PASS_MAX_ELEVATION_BITS[PROP_PASS_COUNT] = {
    UINT64_C(0x40213c92daf7062a),
    UINT64_C(0x40422d853524b592),
    UINT64_C(0x40561f393bd74939),
    UINT64_C(0x4053c418a8d87584),
    UINT64_C(0x403b3c9a628f1891),
    UINT64_C(0x401440bbc090ea20),
};

#define PROP_NUM_FORCE_MODEL 1
#define PROP_NUM_INTEGRATOR 0
#define PROP_NUM_ABS_TOL 9.9999999999999998e-13
#define PROP_NUM_REL_TOL 9.9999999999999998e-13
#define PROP_NUM_INITIAL_STEP_S 60
#define PROP_NUM_MIN_STEP_S 9.9999999999999995e-07
#define PROP_NUM_MAX_STEP_S 3600
#define PROP_NUM_MAX_STEPS 1000000
static const uint64_t PROP_NUM_EPOCH_S_BITS = UINT64_C(0x0000000000000000);
static const uint64_t PROP_NUM_INITIAL_POSITION_BITS[3] = {
    UINT64_C(0x40bb580000000000), UINT64_C(0x0000000000000000), UINT64_C(0x0000000000000000),
};
static const uint64_t PROP_NUM_INITIAL_VELOCITY_BITS[3] = {
    UINT64_C(0x3fe0000000000000), UINT64_C(0x4020666666666666), UINT64_C(0x3ff199999999999a),
};
#define PROP_NUM_SAMPLE_COUNT 10
static const uint64_t PROP_NUM_TIME_BITS[PROP_NUM_SAMPLE_COUNT] = {
    UINT64_C(0x0000000000000000),
    UINT64_C(0x4082c00000000000),
    UINT64_C(0x4092c00000000000),
    UINT64_C(0x409c200000000000),
    UINT64_C(0x40a2c00000000000),
    UINT64_C(0x40a7700000000000),
    UINT64_C(0x40ac200000000000),
    UINT64_C(0x40b0680000000000),
    UINT64_C(0x40b2c00000000000),
    UINT64_C(0x40b5180000000000),
};
static const uint64_t PROP_NUM_POSITION_BITS[10][3] = {
    { UINT64_C(0x40bb580000000000), UINT64_C(0x0000000000000000), UINT64_C(0x0000000000000000) },
    { UINT64_C(0x40b737b57989d79e), UINT64_C(0x40b205911eff2452), UINT64_C(0x408356540ffad0a4) },
    { UINT64_C(0x40a6d91eda305102), UINT64_C(0x40be6fee1dfbe688), UINT64_C(0x409052a3ef079927) },
    { UINT64_C(0xc08a5b3e24882b4c), UINT64_C(0x40c1d0ecb79d66b4), UINT64_C(0x409318fb1059a72f) },
    { UINT64_C(0xc0b1887b4e7242bd), UINT64_C(0x40c1315d916e098f), UINT64_C(0x40926a1bf9ad729b) },
    { UINT64_C(0xc0bd4899156db3f4), UINT64_C(0x40bc203bf94e4a65), UINT64_C(0x408e160864c8a6b8) },
    { UINT64_C(0xc0c2afa4a136cd17), UINT64_C(0x40b24f363b2aba49), UINT64_C(0x408388a8550d9b8f) },
    { UINT64_C(0xc0c4885fbc0edb17), UINT64_C(0x40995396a63babbb), UINT64_C(0x406ab12f58def30e) },
    { UINT64_C(0xc0c3f07448b76192), UINT64_C(0xc0998bdac11c90e2), UINT64_C(0xc06be0024dea5ea6) },
    { UINT64_C(0xc0c0c53c4169956d), UINT64_C(0xc0b23e93900c70b7), UINT64_C(0xc083abd6a83788d8) },
};
static const uint64_t PROP_NUM_VELOCITY_BITS[10][3] = {
    { UINT64_C(0x3fe0000000000000), UINT64_C(0x4020666666666666), UINT64_C(0x3ff199999999999a) },
    { UINT64_C(0xc00dfdf4a20de44c), UINT64_C(0x401afd30dcf5fae4), UINT64_C(0x3fecf2ef04f77fa6) },
    { UINT64_C(0xc017d54e38887575), UINT64_C(0x400e04564844f9bd), UINT64_C(0x3fe011d2d83eaad3) },
    { UINT64_C(0xc019727fadd2e9c0), UINT64_C(0x3fe7f5f42bac9140), UINT64_C(0x3fb9544704a5915c) },
    { UINT64_C(0xc01699c12298bb64), UINT64_C(0xbffb51273de9fcc7), UINT64_C(0xbfcd81224b2937c4) },
    { UINT64_C(0xc0112f4c5c7bb0fe), UINT64_C(0xc00c3e60fb74af74), UINT64_C(0xbfde62944a91c26d) },
    { UINT64_C(0xc00471200e8a6923), UINT64_C(0xc012fdb1a300aed8), UINT64_C(0xbfe466e3b52847e8) },
    { UINT64_C(0xbfe1fcbdcda9cb11), UINT64_C(0xc0157e54d991307e), UINT64_C(0xbfe711070f7f8861) },
    { UINT64_C(0x3ff985495ac2873c), UINT64_C(0xc01577e75d6ac4a1), UINT64_C(0xbfe703a64c1f308c) },
    { UINT64_C(0x400e7a9b324fc2f4), UINT64_C(0xc01273467da91578), UINT64_C(0xbfe3beff57505a62) },
};

#endif /* SIDEREON_PROP_FIXTURE_H */
